OBJECT_NAME,OBJECT_ID,EPOCH,MEAN_MOTION,ECCENTRICITY,INCLINATION,RA_OF_ASC_NODE,ARG_OF_PERICENTER,MEAN_ANOMALY,EPHEMERIS_TYPE,CLASSIFICATION_TYPE,NORAD_CAT_ID,ELEMENT_SET_NO,REV_AT_EPOCH,BSTAR,MEAN_MOTION_DOT,MEAN_MOTION_DDOT
TIBA-1,2019-080A,2026-06-06T13:38:26.761920,1.00273863,.0002184,0.0571,18.3835,70.4114,46.3010,0,U,44800,999,2395,0,.169E-5,0
INMARSAT GX5,2019-080B,2026-06-06T21:26:09.293568,1.00270150,.0002535,0.0366,4.2073,70.2632,153.4215,0,U,44801,999,668,0,.89E-6,0
JCSAT-18 (KACIFIC 1),2019-091A,2026-06-06T15:10:38.919360,1.00271421,.0000168,0.0231,230.4238,332.2994,70.0059,0,U,44868,999,2390,0,-.187E-5,0
ELEKTRO-L 3,2019-095A,2026-06-06T20:40:41.548800,1.00272736,.0001503,0.2301,81.1523,349.8238,210.4189,0,U,44903,999,2360,0,-.83E-6,0
SHIJIAN-20 (SJ-20),2019-097A,2026-06-06T18:54:27.941760,1.00274374,.0013789,4.8917,75.1901,52.4682,95.9224,0,U,44910,999,2359,0,.149E-5,0
TJS-5,2020-002A,2026-06-06T20:54:59.967360,1.00270978,.0007619,0.0374,283.6803,123.2380,269.6177,0,U,44978,999,2360,0,-.328E-5,0
GSAT-30,2020-005A,2026-06-06T20:42:41.357952,1.00270090,.0003521,0.0492,107.9924,335.3427,205.6120,0,U,45026,999,2340,0,-.151E-5,0
EUTELSAT KONNECT,2020-005B,2026-06-06T18:38:15.679104,1.00273583,.0001384,0.0702,99.4718,115.3117,327.2199,0,U,45027,999,2423,0,.64E-6,0
JCSAT-17,2020-013A,2026-06-06T19:15:10.491264,1.00271066,.0002908,5.3923,356.7616,77.7054,245.5529,0,U,45245,999,2312,0,-.307E-5,0
GEO-KOMPSAT-2B,2020-013B,2026-06-06T21:22:00.063264,1.00271878,.0000294,0.0389,177.9952,154.4719,11.6004,0,U,45246,999,2317,0,-.33E-5,0
BEIDOU-3 G2,2020-017A,2026-06-06T20:41:48.941664,1.00274173,.0002632,2.8429,47.1884,26.1693,212.4117,0,U,45344,999,2315,0,-.128E-5,0
AEHF-6 (USA 298),2020-022B,2026-06-06T20:58:20.702208,1.00276290,.0043135,2.5715,300.9994,17.5398,29.0342,0,U,45465,999,2291,0,-.285E-5,0
BEIDOU-3 G3,2020-040A,2026-06-06T20:50:28.955616,1.00273150,.0003013,2.4215,67.4263,337.4536,273.6009,0,U,45807,999,2196,0,-.34E-5,0
APSTAR-6D,2020-045A,2026-06-06T00:25:16.668192,1.00272762,.00020112,0.0488,94.1891,358.9489,301.6730,0,U,45863,999,2174,0,-.304E-5,0
KOREASAT 116,2020-048A,2026-06-05T17:29:32.092224,1.00268436,.0001312,0.0163,298.6389,174.2669,159.8172,0,U,45920,999,2152,0,-.349E-5,0
EXPRESS 103,2020-053A,2026-06-05T20:12:21.690144,1.00271885,.00005694,0.0182,280.8394,175.0042,198.0146,0,U,45985,999,2153,0,-.268E-5,0
EXPRESS 80,2020-053B,2026-06-06T01:42:07.981344,1.00270673,.0001768,0.0205,298.1107,217.0807,204.8232,0,U,45986,999,2152,0,-.123E-5,0
BSAT-4B,2020-056A,2026-06-06T21:24:52.749216,1.00270824,.0004063,0.0432,161.5080,311.5943,213.2561,0,U,46112,999,2128,0,-.336E-5,0
MEV-2,2020-056B,2026-06-06T18:36:00.895104,1.00272409,.0000466,0.0098,323.6079,203.3342,6.2447,0,U,46113,999,8045,0,.3E-7,0
GALAXY 30 (G-30),2020-056C,2026-06-06T18:00:42.508800,1.00272626,.0002313,0.0179,349.6740,84.4288,326.2293,0,U,46114,999,2118,0,.5E-6,0
GAOFEN-13 01,2020-071A,2026-06-05T19:12:48.694176,1.00265267,.00418357,0.4912,84.9567,122.7588,92.8203,0,U,46610,999,2080,0,-.35E-5,0
TIANTONG-1 2,2020-082A,2026-06-06T20:54:36.061344,1.00269012,.0001494,0.8044,325.9715,108.0078,259.8922,0,U,46916,999,2054,0,-.343E-5,0
LUCAS (JDRS-1),2020-089A,2026-06-06T10:28:53.874624,1.00268851,.00027295,0.0335,273.6799,147.9964,81.1706,0,U,47202,999,2031,0,-.222E-5,0
SXM-7,2020-096A,2026-06-05T09:41:21.066720,1.00273132,.00043462,0.0333,112.5259,12.3808,189.1172,0,U,47240,999,732,0,-.193E-5,0
CMS-01,2020-099A,2026-06-06T20:42:41.357952,1.00270564,.0003539,0.0716,100.2213,183.5546,5.1647,0,U,47256,999,2009,0,-.151E-5,0
TURKSAT 5A,2021-001A,2026-06-05T23:23:52.879776,1.00272409,.00002024,0.0178,53.0076,31.5006,191.8055,0,U,47306,999,1985,0,.167E-5,0
TIANTONG-1 3,2021-003A,2026-06-06T20:42:18.894816,1.00272884,.000354,1.7647,338.6532,102.8165,205.9315,0,U,47321,999,1985,0,-.143E-5,0
TJS-6,2021-010A,2026-06-06T02:20:25.074816,1.00269486,.0005375,0.2892,89.8415,54.6095,323.6795,0,U,47613,999,1970,0,.56E-6,0
SBIRS GEO-5 (USA 315),2021-042A,2026-06-06T20:27:21.666240,1.00271587,.0001682,5.1172,329.0397,118.1254,208.7568,0,U,48618,999,1866,0,-.259E-5,0
FENGYUN 4B,2021-047A,2026-06-05T14:00:51.751584,1.00266147,.00051777,0.1239,75.7773,289.8220,203.2690,0,U,48808,999,1845,0,-.317E-5,0
SXM-8,2021-049A,2026-06-05T14:49:24.887424,1.00269181,.00049147,0.0212,19.6277,13.2799,358.3518,0,U,48838,999,1846,0,-.193E-5,0
TIANLIAN 1-05,2021-063A,2026-06-06T01:34:28.316064,1.00272868,.00010734,1.5645,80.7984,315.3769,258.7612,0,U,49011,999,1796,0,.121E-5,0
