TIBA-1                  
1 44800U 19080A   26157.56836530  .00000169  00000+0  00000+0 0  9995
2 44800   0.0571  18.3835 0002184  70.4114  46.3010  1.00273863 23954
INMARSAT GX5            
1 44801U 19080B   26157.89316312  .00000089  00000+0  00000+0 0  9994
2 44801   0.0366   4.2073 0002535  70.2632 153.4215  1.00270150  6682
JCSAT-18 (KACIFIC 1)    
1 44868U 19091A   26157.63239490 -.00000187  00000+0  00000+0 0  9992
2 44868   0.0231 230.4238 0000168 332.2994  70.0059  1.00271421 23900
ELEKTRO-L 3             
1 44903U 19095A   26157.86159200 -.00000083  00000+0  00000+0 0  9996
2 44903   0.2301  81.1523 0001503 349.8238 210.4189  1.00272736 23608
SHIJIAN-20 (SJ-20)      
1 44910U 19097A   26157.78782340  .00000149  00000+0  00000+0 0  9996
2 44910   4.8917  75.1901 0013789  52.4682  95.9224  1.00274374 23595
TJS-5                   
1 44978U 20002A   26157.87152740 -.00000328  00000+0  00000+0 0  9993
2 44978   0.0374 283.6803 0007619 123.2380 269.6177  1.00270978 23603
GSAT-30                 
1 45026U 20005A   26157.86297868 -.00000151  00000+0  00000+0 0  9995
2 45026   0.0492 107.9924 0003521 335.3427 205.6120  1.00270090 23408
EUTELSAT KONNECT        
1 45027U 20005B   26157.77657036  .00000064  00000+0  00000+0 0  9995
2 45027   0.0702  99.4718 0001384 115.3117 327.2199  1.00273583 24235
JCSAT-17                
1 45245U 20013A   26157.80220476 -.00000307  00000+0  00000+0 0  9995
2 45245   5.3923 356.7616 0002908  77.7054 245.5529  1.00271066 23120
GEO-KOMPSAT-2B          
1 45246U 20013B   26157.89027851 -.00000330  00000+0  00000+0 0  9993
2 45246   0.0389 177.9952 0000294 154.4719  11.6004  1.00271878 23178
BEIDOU-3 G2             
1 45344U 20017A   26157.86237201 -.00000128  00000+0  00000+0 0  9990
2 45344   2.8429  47.1884 0002632  26.1693 212.4117  1.00274173 23153
AEHF-6 (USA 298)        
1 45465U 20022B   26157.87385072 -.00000285  00000+0  00000+0 0  9995
2 45465   2.5715 300.9994 0043135  17.5398  29.0342  1.00276290 22910
BEIDOU-3 G3             
1 45807U 20040A   26157.86839069 -.00000340  00000+0  00000+0 0  9996
2 45807   2.4215  67.4263 0003013 337.4536 273.6009  1.00273150 21960
APSTAR-6D               
1 45863U 20045A   26157.01755403 -.00000304  00000+0  00000+0 0  9999
2 45863   0.0488  94.1891 0002011 358.9489 301.6730  1.00272762 21741
KOREASAT 116            
1 45920U 20048A   26156.72884366 -.00000349  00000+0  00000+0 0  9993
2 45920   0.0163 298.6389 0001312 174.2669 159.8172  1.00268436 21522
EXPRESS 103             
1 45985U 20053A   26156.84191771 -.00000268  00000+0  00000+0 0  9994
2 45985   0.0182 280.8394 0000569 175.0042 198.0146  1.00271885 21539
EXPRESS 80              
1 45986U 20053B   26157.07092571 -.00000123  00000+0  00000+0 0  9999
2 45986   0.0205 298.1107 0001768 217.0807 204.8232  1.00270673 21523
BSAT-4B                 
1 46112U 20056A   26157.89227719 -.00000336  00000+0  00000+0 0  9994
2 46112   0.0432 161.5080 0004063 311.5943 213.2561  1.00270824 21282
MEV-2                   
1 46113U 20056B   26157.77501036  .00000003  00000+0  00000+0 0  9999
2 46113   0.0098 323.6079 0000466 203.3342   6.2447  1.00272409 80452
GALAXY 30 (G-30)        
1 46114U 20056C   26157.75049200  .00000050  00000+0  00000+0 0  9990
2 46114   0.0179 349.6740 0002313  84.4288 326.2293  1.00272626 21186
GAOFEN-13 01            
1 46610U 20071A   26156.80056359 -.00000350  00000+0  00000+0 0  9990
2 46610   0.4912  84.9567 0041835 122.7588  92.8203  1.00265267 20801
TIANTONG-1 2            
1 46916U 20082A   26157.87125071 -.00000343  00000+0  00000+0 0  9999
2 46916   0.8044 325.9715 0001494 108.0078 259.8922  1.00269012 20547
LUCAS (JDRS-1)          
1 47202U 20089A   26157.43673466 -.00000222  00000+0  00000+0 0  9999
2 47202   0.0335 273.6799 0002729 147.9964  81.1706  1.00268851 20311
SXM-7                   
1 47240U 20096A   26156.40371605 -.00000193  00000+0  00000+0 0  9992
2 47240   0.0333 112.5259 0004346  12.3808 189.1172  1.00273132  7322
CMS-01                  
1 47256U 20099A   26157.86297868 -.00000151  00000+0  00000+0 0  9995
2 47256   0.0716 100.2213 0003539 183.5546   5.1647  1.00270564 20090
TURKSAT 5A              
1 47306U 21001A   26156.97491759  .00000167  00000+0  00000+0 0  9997
2 47306   0.0178  53.0076 0000202  31.5006 191.8055  1.00272409 19855
TIANTONG-1 3            
1 47321U 21003A   26157.86271869 -.00000143  00000+0  00000+0 0  9998
2 47321   1.7647 338.6532 0003540 102.8165 205.9315  1.00272884 19859
TJS-6                   
1 47613U 21010A   26157.09751244  .00000056  00000+0  00000+0 0  9997
2 47613   0.2892  89.8415 0005375  54.6095 323.6795  1.00269486 19706
SBIRS GEO-5 (USA 315)   
1 48618U 21042A   26157.85233410 -.00000259  00000+0  00000+0 0  9998
2 48618   5.1172 329.0397 0001682 118.1254 208.7568  1.00271587 18665
FENGYUN 4B              
1 48808U 21047A   26156.58393231 -.00000317  00000+0  00000+0 0  9996
2 48808   0.1239  75.7773 0005177 289.8220 203.2690  1.00266147 18459
SXM-8                   
1 48838U 21049A   26156.61764916 -.00000193  00000+0  00000+0 0  9999
2 48838   0.0212  19.6277 0004914  13.2799 358.3518  1.00269181 18469
TIANLIAN 1-05           
1 49011U 21063A   26157.06560551  .00000121  00000+0  00000+0 0  9998
2 49011   1.5645  80.7984 0001073 315.3769 258.7612  1.00272868 17967
